{
    "links": {
        "self": "http://www.neowsapp.com/rest/v1/neo/3757296?api_key=iIulBulltgU6a56xZRHN4H3l9WmuAYTsLGpBGhQ2"
    },
    "id": "3757296",
    "neo_reference_id": "3757296",
    "name": "(2016 PV38)",
    "designation": "2016 PV38",
    "nasa_jpl_url": "http://ssd.jpl.nasa.gov/sbdb.cgi?sstr=3757296",
    "absolute_magnitude_h": 21.6,
    "estimated_diameter": {
        "kilometers": {
            "estimated_diameter_min": 0.1272198785,
            "estimated_diameter_max": 0.2844722965
        },
        "meters": {
            "estimated_diameter_min": 127.2198785394,
            "estimated_diameter_max": 284.4722965033
        },
        "miles": {
            "estimated_diameter_min": 0.0790507431,
            "estimated_diameter_max": 0.1767628354
        },
        "feet": {
            "estimated_diameter_min": 417.3880663071,
            "estimated_diameter_max": 933.3080892598
        }
    },
    "is_potentially_hazardous_asteroid": false,
    "close_approach_data": [
        {
            "close_approach_date": "2016-07-29",
            "close_approach_date_full": "2016-Jul-29 12:01",
            "epoch_date_close_approach": 1469793660000,
            "relative_velocity": {
                "kilometers_per_second": "3.4160772908",
                "kilometers_per_hour": "12297.8782469271",
                "miles_per_hour": "7641.4232918198"
            },
            "miss_distance": {
                "astronomical": "0.3589912953",
                "lunar": "139.6476138717",
                "kilometers": "53704333.125421011",
                "miles": "33370325.2015955118"
            },
            "orbiting_body": "Earth"
        },
        {
            "close_approach_date": "2035-08-18",
            "close_approach_date_full": "2035-Aug-18 13:46",
            "epoch_date_close_approach": 2071057560000,
            "relative_velocity": {
                "kilometers_per_second": "8.9148874859",
                "kilometers_per_hour": "32093.5949491159",
                "miles_per_hour": "19941.7118171326"
            },
            "miss_distance": {
                "astronomical": "0.0924496298",
                "lunar": "35.9629059922",
                "kilometers": "13830267.700368526",
                "miles": "8593729.8524606188"
            },
            "orbiting_body": "Mars"
        }
    ],
    "orbital_data": {
        "orbit_id": "10",
        "orbit_determination_date": "2017-04-06 08:24:34",
        "first_observation_date": "2016-08-07",
        "last_observation_date": "2016-09-25",
        "data_arc_in_days": 49,
        "observations_used": 39,
        "orbit_uncertainty": "6",
        "minimum_orbit_intersection": ".302952",
        "jupiter_tisserand_invariant": "3.582",
        "epoch_osculation": "2459000.5",
        "eccentricity": ".4013735882021571",
        "semi_major_axis": "2.155630241187561",
        "inclination": "7.922789328534079",
        "ascending_node_longitude": "344.7692339974568",
        "orbital_period": "1156.005308327166",
        "perihelion_distance": "1.290417196445028",
        "perihelion_argument": "302.3172169236201",
        "aphelion_distance": "3.020843285930094",
        "perihelion_time": "2458720.855018982616",
        "mean_anomaly": "87.08627239085872",
        "mean_motion": ".311417255099762",
        "equinox": "J2000",
        "orbit_class": {
            "orbit_class_type": "AMO",
            "orbit_class_description": "Near-Earth asteroid orbits similar to that of 1221 Amor",
            "orbit_class_range": "1.017 AU < q (perihelion) < 1.3 AU"
        }
    },
    "is_sentry_object": false
}